{
  "type": "FeatureCollection",
  "features": [
    {
      "type": "Feature",
      "properties": {
        "norad_id": 64694,
        "name": "GOSAT-GW (IBUKI GW)",
        "group": "resource",
        "lat": -70.01559535835719,
        "lon": -47.137089461764845,
        "alt_km": 677.0468114776004,
        "timestamp": "2025-12-20T14:38:01.616525+00:00",
        "meta_object_name": "GOSAT-GW (IBUKI GW)",
        "meta_object_id": "2025-141A",
        "meta_epoch": "2025-12-20T06:46:41.273760",
        "meta_mean_motion": 14.67565151,
        "meta_eccentricity": 0.00014406,
        "meta_inclination": 98.0435,
        "meta_ra_of_asc_node": 289.6587,
        "meta_arg_of_pericenter": 84.071,
        "meta_mean_anomaly": 276.0659,
        "meta_ephemeris_type": 0,
        "meta_classification_type": "U",
        "meta_norad_cat_id": 64694,
        "meta_element_set_no": 999,
        "meta_rev_at_epoch": 2560,
        "meta_bstar": 8.4142998e-05,
        "meta_mean_motion_dot": 4.3e-06,
        "meta_mean_motion_ddot": 0,
        "tle_line1": "1 64694U 25141A   25354.28242215  .00000430  00000+0  84143-4 0  9997",
        "tle_line2": "2 64694  98.0435 289.6587 0001440  84.0710 276.0659 14.67565151 25603"
      },
      "geometry": {
        "type": "Point",
        "coordinates": [
          -47.137089461764845,
          -70.01559535835719
        ]
      }
    },
    {
      "type": "Feature",
      "properties": {
        "norad_id": 64876,
        "name": "IONOSFERA-M 3",
        "group": "resource",
        "lat": 64.86621959591336,
        "lon": -62.51701686795112,
        "alt_km": 812.7461451493728,
        "timestamp": "2025-12-20T14:38:01.616536+00:00",
        "meta_object_name": "IONOSFERA-M 3",
        "meta_object_id": "2025-155A",
        "meta_epoch": "2025-12-20T05:52:34.569120",
        "meta_mean_motion": 14.21442731,
        "meta_eccentricity": 0.00020255,
        "meta_inclination": 98.5793,
        "meta_ra_of_asc_node": 315.8988,
        "meta_arg_of_pericenter": 48.0566,
        "meta_mean_anomaly": 312.0784,
        "meta_ephemeris_type": 0,
        "meta_classification_type": "U",
        "meta_norad_cat_id": 64876,
        "meta_element_set_no": 999,
        "meta_rev_at_epoch": 2098,
        "meta_bstar": 3.7151123e-05,
        "meta_mean_motion_dot": 3.9e-07,
        "meta_mean_motion_ddot": 0,
        "tle_line1": "1 64876U 25155A   25354.24484455  .00000039  00000+0  37151-4 0  9996",
        "tle_line2": "2 64876  98.5793 315.8988 0002025  48.0566 312.0784 14.21442731 20987"
      },
      "geometry": {
        "type": "Point",
        "coordinates": [
          -62.51701686795112,
          64.86621959591336
        ]
      }
    },
    {
      "type": "Feature",
      "properties": {
        "norad_id": 64877,
        "name": "IONOSFERA-M 4",
        "group": "resource",
        "lat": -65.58673333938052,
        "lon": 116.74720445969244,
        "alt_km": 828.6812678778624,
        "timestamp": "2025-12-20T14:38:01.616546+00:00",
        "meta_object_name": "IONOSFERA-M 4",
        "meta_object_id": "2025-155B",
        "meta_epoch": "2025-12-20T05:01:42.008736",
        "meta_mean_motion": 14.21443868,
        "meta_eccentricity": 0.00014269,
        "meta_inclination": 98.5791,
        "meta_ra_of_asc_node": 315.7839,
        "meta_arg_of_pericenter": 56.1208,
        "meta_mean_anomaly": 304.0106,
        "meta_ephemeris_type": 0,
        "meta_classification_type": "U",
        "meta_norad_cat_id": 64877,
        "meta_element_set_no": 999,
        "meta_rev_at_epoch": 2097,
        "meta_bstar": 3.6894136e-05,
        "meta_mean_motion_dot": 3.8e-07,
        "meta_mean_motion_ddot": 0,
        "tle_line1": "1 64877U 25155B   25354.20951399  .00000038  00000+0  36894-4 0  9991",
        "tle_line2": "2 64877  98.5791 315.7839 0001426  56.1208 304.0106 14.21443868 20977"
      },
      "geometry": {
        "type": "Point",
        "coordinates": [
          116.74720445969244,
          -65.58673333938052
        ]
      }
    },
    {
      "type": "Feature",
      "properties": {
        "norad_id": 64899,
        "name": "MICROCARB",
        "group": "resource",
        "lat": 32.77209680272813,
        "lon": 64.63307281206701,
        "alt_km": 652.0044166436683,
        "timestamp": "2025-12-20T14:38:01.616556+00:00",
        "meta_object_name": "MICROCARB",
        "meta_object_id": "2025-156A",
        "meta_epoch": "2025-12-19T23:48:05.443488",
        "meta_mean_motion": 14.72067931,
        "meta_eccentricity": 0.00174903,
        "meta_inclination": 98.0018,
        "meta_ra_of_asc_node": 69.2207,
        "meta_arg_of_pericenter": 122.9295,
        "meta_mean_anomaly": 237.3598,
        "meta_ephemeris_type": 0,
        "meta_classification_type": "U",
        "meta_norad_cat_id": 64899,
        "meta_element_set_no": 999,
        "meta_rev_at_epoch": 2160,
        "meta_bstar": 8.5403673e-05,
        "meta_mean_motion_dot": 4.88e-06,
        "meta_mean_motion_ddot": 0,
        "tle_line1": "1 64899U 25156A   25353.99172967  .00000488  00000+0  85404-4 0  9997",
        "tle_line2": "2 64899  98.0018  69.2207 0017490 122.9295 237.3598 14.72067931 21607"
      },
      "geometry": {
        "type": "Point",
        "coordinates": [
          64.63307281206701,
          32.77209680272813
        ]
      }
    },
    {
      "type": "Feature",
      "properties": {
        "norad_id": 64900,
        "name": "CO3D 3",
        "group": "resource",
        "lat": -3.6857264761266917,
        "lon": 71.34639531633131,
        "alt_km": 508.6488953824428,
        "timestamp": "2025-12-20T14:38:01.616566+00:00",
        "meta_object_name": "CO3D 3",
        "meta_object_id": "2025-156B",
        "meta_epoch": "2025-12-20T06:45:04.918752",
        "meta_mean_motion": 15.20201697,
        "meta_eccentricity": 0.00013743,
        "meta_inclination": 97.4346,
        "meta_ra_of_asc_node": 70.5407,
        "meta_arg_of_pericenter": 79.6916,
        "meta_mean_anomaly": 280.4474,
        "meta_ephemeris_type": 0,
        "meta_classification_type": "U",
        "meta_norad_cat_id": 64900,
        "meta_element_set_no": 999,
        "meta_rev_at_epoch": 2235,
        "meta_bstar": 0.00024967883,
        "meta_mean_motion_dot": 5.341e-05,
        "meta_mean_motion_ddot": 0,
        "tle_line1": "1 64900U 25156B   25354.28130693  .00005341  00000+0  24968-3 0  9993",
        "tle_line2": "2 64900  97.4346  70.5407 0001374  79.6916 280.4474 15.20201697 22354"
      },
      "geometry": {
        "type": "Point",
        "coordinates": [
          71.34639531633131,
          -3.6857264761266917
        ]
      }
    },
    {
      "type": "Feature",
      "properties": {
        "norad_id": 64901,
        "name": "CO3D 4",
        "group": "resource",
        "lat": -4.32579469564553,
        "lon": 71.42998370429734,
        "alt_km": 509.6231796868087,
        "timestamp": "2025-12-20T14:38:01.616576+00:00",
        "meta_object_name": "CO3D 4",
        "meta_object_id": "2025-156C",
        "meta_epoch": "2025-12-19T14:57:26.055072",
        "meta_mean_motion": 15.20230123,
        "meta_eccentricity": 0.0001264,
        "meta_inclination": 97.434,
        "meta_ra_of_asc_node": 69.8917,
        "meta_arg_of_pericenter": 174.7354,
        "meta_mean_anomaly": 185.3894,
        "meta_ephemeris_type": 0,
        "meta_classification_type": "U",
        "meta_norad_cat_id": 64901,
        "meta_element_set_no": 999,
        "meta_rev_at_epoch": 2225,
        "meta_bstar": 0.00021367,
        "meta_mean_motion_dot": 4.564e-05,
        "meta_mean_motion_ddot": 0,
        "tle_line1": "1 64901U 25156C   25353.62321823  .00004564  00000+0  21367-3 0  9994",
        "tle_line2": "2 64901  97.4340  69.8917 0001264 174.7354 185.3894 15.20230123 22251"
      },
      "geometry": {
        "type": "Point",
        "coordinates": [
          71.42998370429734,
          -4.32579469564553
        ]
      }
    },
    {
      "type": "Feature",
      "properties": {
        "norad_id": 64902,
        "name": "CO3D 2",
        "group": "resource",
        "lat": 1.904461588848401,
        "lon": -108.98870966354644,
        "alt_km": 508.28390273799505,
        "timestamp": "2025-12-20T14:38:01.616586+00:00",
        "meta_object_name": "CO3D 2",
        "meta_object_id": "2025-156D",
        "meta_epoch": "2025-12-18T23:56:22.431840",
        "meta_mean_motion": 15.20201426,
        "meta_eccentricity": 6.127e-05,
        "meta_inclination": 97.4339,
        "meta_ra_of_asc_node": 69.1735,
        "meta_arg_of_pericenter": 62.3895,
        "meta_mean_anomaly": 297.7402,
        "meta_ephemeris_type": 0,
        "meta_classification_type": "U",
        "meta_norad_cat_id": 64902,
        "meta_element_set_no": 999,
        "meta_rev_at_epoch": 2215,
        "meta_bstar": 2.1688322e-05,
        "meta_mean_motion_dot": 4.02e-06,
        "meta_mean_motion_ddot": 0,
        "tle_line1": "1 64902U 25156D   25352.99748185  .00000402  00000+0  21688-4 0  9992",
        "tle_line2": "2 64902  97.4339  69.1735 0000612  62.3895 297.7402 15.20201426 22155"
      },
      "geometry": {
        "type": "Point",
        "coordinates": [
          -108.98870966354644,
          1.904461588848401
        ]
      }
    }
  ]
}